STARLINK-35798          
1 66292U 25247AD  25330.82608601  .00119641  00000+0  21232-2 0  9992
2 66292  53.1595 312.1468 0001000  89.0635 271.0488 15.49352557  5249
LVM3 R/B                
1 66310U 25249A   25330.57454822  .00039856  75880-6  11313-2 0  9994
2 66310  21.3460 146.7632 6671452 203.0741 102.0359  3.13845495   777
CMS-03 (GSAT-7R)        
1 66311U 25249B   25330.82627909 -.00000239  00000+0  00000+0 0  9998
2 66311   0.1819 271.7194 0004443 196.5690 348.7007  1.00271146   326
YAOGAN-46               
1 66313U 25250A   25323.71050301 -.00000009  00000+0  00000+0 0  9993
2 66313  20.0323 106.9378 0049242 131.7872 228.6447  5.35115933   968
SENTINEL-1D             
1 66315U 25251A   25329.92851653  .00000204  00000+0  52376-4 0  9998
2 66315  98.1939 335.1735 0001477 179.8573 180.2628 14.59751375  3083
QPS-SAR-14 (YACHIHOKO-I)
1 66316U 25252A   25330.72955683  .00005818  00000+0  50636-3 0  9990
2 66316  42.0032 163.1388 0007403  36.7777 323.3554 14.97452080  3138
ELECTRON KICK STAGE R/B 
1 66318U 25252C   25330.53446203  .02041202  77240-5  17388-2 0  9995
2 66318  41.9774 150.0982 0113597 176.7091 183.4541 16.00077308  3269
STARLINK-35442          
1 66319U 25253A   25330.83334491 -.01523493  00000+0 -27648-1 0  9996
2 66319  43.0000  77.7718 0000984 273.4554  78.8251 15.51635801  4462
STARLINK-34616          
1 66320U 25253B   25330.83334491 -.01518446  00000+0 -27533-1 0  9993
2 66320  42.9996  77.7661 0001634 267.0390  87.1564 15.51645250  4574
STARLINK-34615          
1 66321U 25253C   25330.83334491  .00612742  00000+0  61971-2 0  9990
2 66321  42.9994  77.6694 0002933 334.8644  58.5151 15.62540883  4422
STARLINK-35292          
1 66322U 25253D   25330.33337963 -.02027292  00000+0 -34155-1 0  9990
2 66322  42.9994  80.6760 0001602 278.0413 167.2613 15.54041213  4296
