CCSDS_OMM_VERS = 2.0
CREATION_DATE  = 
ORIGINATOR     = 

OBJECT_NAME    = STARLINK-35798
OBJECT_ID      = 2025-247AD
CENTER_NAME    = EARTH
REF_FRAME      = TEME
TIME_SYSTEM    = UTC
MEAN_ELEMENT_THEORY = SGP/SGP4

EPOCH          = 2025-11-26T19:49:33.831264
MEAN_MOTION    = 15.49352557
ECCENTRICITY   = .0001
INCLINATION    = 53.1595
RA_OF_ASC_NODE = 312.1468
ARG_OF_PERICENTER = 89.0635
MEAN_ANOMALY   = 271.0488

EPHEMERIS_TYPE = 0
CLASSIFICATION_TYPE = U
NORAD_CAT_ID   = 66292
ELEMENT_SET_NO = 999
REV_AT_EPOCH   = 524
BSTAR          = .21232E-2
MEAN_MOTION_DOT = .119641E-2
MEAN_MOTION_DDOT = 0

CCSDS_OMM_VERS = 2.0
CREATION_DATE  = 
ORIGINATOR     = 

OBJECT_NAME    = LVM3 R/B
OBJECT_ID      = 2025-249A
CENTER_NAME    = EARTH
REF_FRAME      = TEME
TIME_SYSTEM    = UTC
MEAN_ELEMENT_THEORY = SGP/SGP4

EPOCH          = 2025-11-26T13:47:20.966208
MEAN_MOTION    = 3.13845495
ECCENTRICITY   = .6671452
INCLINATION    = 21.3460
RA_OF_ASC_NODE = 146.7632
ARG_OF_PERICENTER = 203.0741
MEAN_ANOMALY   = 102.0359

EPHEMERIS_TYPE = 0
CLASSIFICATION_TYPE = U
NORAD_CAT_ID   = 66310
ELEMENT_SET_NO = 999
REV_AT_EPOCH   = 77
BSTAR          = .11313E-2
MEAN_MOTION_DOT = .39856E-3
MEAN_MOTION_DDOT = .7588E-6

CCSDS_OMM_VERS = 2.0
CREATION_DATE  = 
ORIGINATOR     = 

OBJECT_NAME    = CMS-03 (GSAT-7R)
OBJECT_ID      = 2025-249B
CENTER_NAME    = EARTH
REF_FRAME      = TEME
TIME_SYSTEM    = UTC
MEAN_ELEMENT_THEORY = SGP/SGP4

EPOCH          = 2025-11-26T19:49:50.513376
MEAN_MOTION    = 1.00271146
ECCENTRICITY   = .0004443
INCLINATION    = 0.1819
RA_OF_ASC_NODE = 271.7194
ARG_OF_PERICENTER = 196.5690
MEAN_ANOMALY   = 348.7007

EPHEMERIS_TYPE = 0
CLASSIFICATION_TYPE = U
NORAD_CAT_ID   = 66311
ELEMENT_SET_NO = 999
REV_AT_EPOCH   = 32
BSTAR          = 0
MEAN_MOTION_DOT = -.239E-5
MEAN_MOTION_DDOT = 0

CCSDS_OMM_VERS = 2.0
CREATION_DATE  = 
ORIGINATOR     = 

OBJECT_NAME    = YAOGAN-46
OBJECT_ID      = 2025-250A
CENTER_NAME    = EARTH
REF_FRAME      = TEME
TIME_SYSTEM    = UTC
MEAN_ELEMENT_THEORY = SGP/SGP4

EPOCH          = 2025-11-19T17:03:07.460064
MEAN_MOTION    = 5.35115933
ECCENTRICITY   = .00492424
INCLINATION    = 20.0323
RA_OF_ASC_NODE = 106.9378
ARG_OF_PERICENTER = 131.7872
MEAN_ANOMALY   = 228.6447

EPHEMERIS_TYPE = 0
CLASSIFICATION_TYPE = U
NORAD_CAT_ID   = 66313
ELEMENT_SET_NO = 999
REV_AT_EPOCH   = 96
BSTAR          = 0
MEAN_MOTION_DOT = -.9E-7
MEAN_MOTION_DDOT = 0

CCSDS_OMM_VERS = 2.0
CREATION_DATE  = 
ORIGINATOR     = 

OBJECT_NAME    = SENTINEL-1D
OBJECT_ID      = 2025-251A
CENTER_NAME    = EARTH
REF_FRAME      = TEME
TIME_SYSTEM    = UTC
MEAN_ELEMENT_THEORY = SGP/SGP4

EPOCH          = 2025-11-25T22:17:03.828192
MEAN_MOTION    = 14.59751375
ECCENTRICITY   = .0001477
INCLINATION    = 98.1939
RA_OF_ASC_NODE = 335.1735
ARG_OF_PERICENTER = 179.8573
MEAN_ANOMALY   = 180.2628

EPHEMERIS_TYPE = 0
CLASSIFICATION_TYPE = U
NORAD_CAT_ID   = 66315
ELEMENT_SET_NO = 999
REV_AT_EPOCH   = 308
BSTAR          = .52376371E-4
MEAN_MOTION_DOT = .204E-5
MEAN_MOTION_DDOT = 0

CCSDS_OMM_VERS = 2.0
CREATION_DATE  = 
ORIGINATOR     = 

OBJECT_NAME    = QPS-SAR-14 (YACHIHOKO-I)
OBJECT_ID      = 2025-252A
CENTER_NAME    = EARTH
REF_FRAME      = TEME
TIME_SYSTEM    = UTC
MEAN_ELEMENT_THEORY = SGP/SGP4

EPOCH          = 2025-11-26T17:30:33.710112
MEAN_MOTION    = 14.97452080
ECCENTRICITY   = .0007403
INCLINATION    = 42.0032
RA_OF_ASC_NODE = 163.1388
ARG_OF_PERICENTER = 36.7777
MEAN_ANOMALY   = 323.3554

EPHEMERIS_TYPE = 0
CLASSIFICATION_TYPE = U
NORAD_CAT_ID   = 66316
ELEMENT_SET_NO = 999
REV_AT_EPOCH   = 313
BSTAR          = .50636E-3
MEAN_MOTION_DOT = .5818E-4
MEAN_MOTION_DDOT = 0

CCSDS_OMM_VERS = 2.0
CREATION_DATE  = 
ORIGINATOR     = 

OBJECT_NAME    = ELECTRON KICK STAGE R/B
OBJECT_ID      = 2025-252C
CENTER_NAME    = EARTH
REF_FRAME      = TEME
TIME_SYSTEM    = UTC
MEAN_ELEMENT_THEORY = SGP/SGP4

EPOCH          = 2025-11-26T12:49:37.519392
MEAN_MOTION    = 16.00077308
ECCENTRICITY   = .0113597
INCLINATION    = 41.9774
RA_OF_ASC_NODE = 150.0982
ARG_OF_PERICENTER = 176.7091
MEAN_ANOMALY   = 183.4541

EPHEMERIS_TYPE = 0
CLASSIFICATION_TYPE = U
NORAD_CAT_ID   = 66318
ELEMENT_SET_NO = 999
REV_AT_EPOCH   = 326
BSTAR          = .17388E-2
MEAN_MOTION_DOT = .2041202E-1
MEAN_MOTION_DDOT = .7724E-5

CCSDS_OMM_VERS = 2.0
CREATION_DATE  = 
ORIGINATOR     = 

OBJECT_NAME    = STARLINK-35442
OBJECT_ID      = 2025-253A
CENTER_NAME    = EARTH
REF_FRAME      = TEME
TIME_SYSTEM    = UTC
MEAN_ELEMENT_THEORY = SGP/SGP4

EPOCH          = 2025-11-26T20:00:01.000224
MEAN_MOTION    = 15.51635801
ECCENTRICITY   = .0000984
INCLINATION    = 43.0000
RA_OF_ASC_NODE = 77.7718
ARG_OF_PERICENTER = 273.4554
MEAN_ANOMALY   = 78.8251

EPHEMERIS_TYPE = 0
CLASSIFICATION_TYPE = U
NORAD_CAT_ID   = 66319
ELEMENT_SET_NO = 999
REV_AT_EPOCH   = 446
BSTAR          = -.27648E-1
MEAN_MOTION_DOT = -.1523493E-1
MEAN_MOTION_DDOT = 0

CCSDS_OMM_VERS = 2.0
CREATION_DATE  = 
ORIGINATOR     = 

OBJECT_NAME    = STARLINK-34616
OBJECT_ID      = 2025-253B
CENTER_NAME    = EARTH
REF_FRAME      = TEME
TIME_SYSTEM    = UTC
MEAN_ELEMENT_THEORY = SGP/SGP4

EPOCH          = 2025-11-26T20:00:01.000224
MEAN_MOTION    = 15.51645250
ECCENTRICITY   = .0001634
INCLINATION    = 42.9996
RA_OF_ASC_NODE = 77.7661
ARG_OF_PERICENTER = 267.0390
MEAN_ANOMALY   = 87.1564

EPHEMERIS_TYPE = 0
CLASSIFICATION_TYPE = U
NORAD_CAT_ID   = 66320
ELEMENT_SET_NO = 999
REV_AT_EPOCH   = 457
BSTAR          = -.27533E-1
MEAN_MOTION_DOT = -.1518446E-1
MEAN_MOTION_DDOT = 0

CCSDS_OMM_VERS = 2.0
CREATION_DATE  = 
ORIGINATOR     = 

OBJECT_NAME    = STARLINK-34615
OBJECT_ID      = 2025-253C
CENTER_NAME    = EARTH
REF_FRAME      = TEME
TIME_SYSTEM    = UTC
MEAN_ELEMENT_THEORY = SGP/SGP4

EPOCH          = 2025-11-26T20:00:01.000224
MEAN_MOTION    = 15.62540883
ECCENTRICITY   = .0002933
INCLINATION    = 42.9994
RA_OF_ASC_NODE = 77.6694
ARG_OF_PERICENTER = 334.8644
MEAN_ANOMALY   = 58.5151

EPHEMERIS_TYPE = 0
CLASSIFICATION_TYPE = U
NORAD_CAT_ID   = 66321
ELEMENT_SET_NO = 999
REV_AT_EPOCH   = 442
BSTAR          = .61971E-2
MEAN_MOTION_DOT = .612742E-2
MEAN_MOTION_DDOT = 0

CCSDS_OMM_VERS = 2.0
CREATION_DATE  = 
ORIGINATOR     = 

OBJECT_NAME    = STARLINK-35292
OBJECT_ID      = 2025-253D
CENTER_NAME    = EARTH
REF_FRAME      = TEME
TIME_SYSTEM    = UTC
MEAN_ELEMENT_THEORY = SGP/SGP4

EPOCH          = 2025-11-26T08:00:04.000032
MEAN_MOTION    = 15.54041213
ECCENTRICITY   = .00016027
INCLINATION    = 42.9994
RA_OF_ASC_NODE = 80.6760
ARG_OF_PERICENTER = 278.0413
MEAN_ANOMALY   = 167.2613

EPHEMERIS_TYPE = 0
CLASSIFICATION_TYPE = U
NORAD_CAT_ID   = 66322
ELEMENT_SET_NO = 999
REV_AT_EPOCH   = 429
BSTAR          = -.34154528E-1
MEAN_MOTION_DOT = -.2027292E-1
MEAN_MOTION_DDOT = 0

